BRO-15                  
1 60553U 24149CP  26068.78650368  .00000816  00000+0  78021-4 0  9990
2 60553  97.6864 146.0377 0009320  65.4416 294.7775 14.95892184 85149
STARLINK-36178          
1 67025U 25293Y   26068.78688346 -.00002408  00000+0 -19395-3 0  9998
2 67025  70.0026  94.1594 0003136 269.3092  90.7708 14.98360249 14904
